[{"OBJECT_NAME":"GJZ 01","OBJECT_ID":"2024-238A","EPOCH":"2026-03-09T22:58:31.569312","MEAN_MOTION":13.75204151,"ECCENTRICITY":0.00225262,"INCLINATION":59.9119,"RA_OF_ASC_NODE":227.0135,"ARG_OF_PERICENTER":155.3106,"MEAN_ANOMALY":204.8985,"EPHEMERIS_TYPE":0,"CLASSIFICATION_TYPE":"U","NORAD_CAT_ID":62290,"ELEMENT_SET_NO":999,"REV_AT_EPOCH":6195,"BSTAR":0.00017039412,"MEAN_MOTION_DOT":4.5e-7,"MEAN_MOTION_DDOT":0},{"OBJECT_NAME":"FENGYUN 1C DEB","OBJECT_ID":"1999-025RW","EPOCH":"2026-03-09T21:57:12.165696","MEAN_MOTION":14.07245135,"ECCENTRICITY":0.01634563,"INCLINATION":98.8139,"RA_OF_ASC_NODE":60.1769,"ARG_OF_PERICENTER":324.4726,"MEAN_ANOMALY":97.0874,"EPHEMERIS_TYPE":0,"CLASSIFICATION_TYPE":"U","NORAD_CAT_ID":30117,"ELEMENT_SET_NO":999,"REV_AT_EPOCH":98215,"BSTAR":0.00036110863,"MEAN_MOTION_DOT":6.4e-6,"MEAN_MOTION_DDOT":0}]
